<?xml version="1.0" encoding="UTF-8"?>
<ndm xmlns:xsi="http://www.w3.org/2001/XMLSchema-instance" xsi:noNamespaceSchemaLocation="https://sanaregistry.org/r/ndmxml_unqualified/ndmxml-2.0.0-master-2.0.xsd">
<omm id="CCSDS_OMM_VERS" version="2.0">
<header><CREATION_DATE/><ORIGINATOR/></header><body><segment><metadata><OBJECT_NAME>ONEWEB-0205</OBJECT_NAME><OBJECT_ID>2021-031S</OBJECT_ID><CENTER_NAME>EARTH</CENTER_NAME><REF_FRAME>TEME</REF_FRAME><TIME_SYSTEM>UTC</TIME_SYSTEM><MEAN_ELEMENT_THEORY>SGP4</MEAN_ELEMENT_THEORY></metadata><data><meanElements><EPOCH>2023-12-17T09:49:32.695680</EPOCH><MEAN_MOTION>13.14502491</MEAN_MOTION><ECCENTRICITY>.0001819</ECCENTRICITY><INCLINATION>87.8969</INCLINATION><RA_OF_ASC_NODE>111.3897</RA_OF_ASC_NODE><ARG_OF_PERICENTER>101.5621</ARG_OF_PERICENTER><MEAN_ANOMALY>258.5713</MEAN_ANOMALY></meanElements><tleParameters><EPHEMERIS_TYPE>0</EPHEMERIS_TYPE><CLASSIFICATION_TYPE>U</CLASSIFICATION_TYPE><NORAD_CAT_ID>48226</NORAD_CAT_ID><ELEMENT_SET_NO>999</ELEMENT_SET_NO><REV_AT_EPOCH>12836</REV_AT_EPOCH><BSTAR>.59517E-3</BSTAR><MEAN_MOTION_DOT>.233E-5</MEAN_MOTION_DOT><MEAN_MOTION_DDOT>0</MEAN_MOTION_DDOT></tleParameters></data></segment></body></omm>
<omm id="CCSDS_OMM_VERS" version="2.0">
<header><CREATION_DATE/><ORIGINATOR/></header><body><segment><metadata><OBJECT_NAME>ONEWEB-0206</OBJECT_NAME><OBJECT_ID>2021-031T</OBJECT_ID><CENTER_NAME>EARTH</CENTER_NAME><REF_FRAME>TEME</REF_FRAME><TIME_SYSTEM>UTC</TIME_SYSTEM><MEAN_ELEMENT_THEORY>SGP4</MEAN_ELEMENT_THEORY></metadata><data><meanElements><EPOCH>2023-12-16T20:23:26.927808</EPOCH><MEAN_MOTION>13.14503971</MEAN_MOTION><ECCENTRICITY>.000179</ECCENTRICITY><INCLINATION>87.8973</INCLINATION><RA_OF_ASC_NODE>111.4927</RA_OF_ASC_NODE><ARG_OF_PERICENTER>98.2192</ARG_OF_PERICENTER><MEAN_ANOMALY>261.9141</MEAN_ANOMALY></meanElements><tleParameters><EPHEMERIS_TYPE>0</EPHEMERIS_TYPE><CLASSIFICATION_TYPE>U</CLASSIFICATION_TYPE><NORAD_CAT_ID>48227</NORAD_CAT_ID><ELEMENT_SET_NO>999</ELEMENT_SET_NO><REV_AT_EPOCH>12824</REV_AT_EPOCH><BSTAR>.66128E-4</BSTAR><MEAN_MOTION_DOT>.37E-6</MEAN_MOTION_DOT><MEAN_MOTION_DDOT>0</MEAN_MOTION_DDOT></tleParameters></data></segment></body></omm>
<omm id="CCSDS_OMM_VERS" version="2.0">
<header><CREATION_DATE/><ORIGINATOR/></header><body><segment><metadata><OBJECT_NAME>ONEWEB-0182</OBJECT_NAME><OBJECT_ID>2021-031U</OBJECT_ID><CENTER_NAME>EARTH</CENTER_NAME><REF_FRAME>TEME</REF_FRAME><TIME_SYSTEM>UTC</TIME_SYSTEM><MEAN_ELEMENT_THEORY>SGP4</MEAN_ELEMENT_THEORY></metadata><data><meanElements><EPOCH>2023-12-16T20:16:37.479936</EPOCH><MEAN_MOTION>13.14500781</MEAN_MOTION><ECCENTRICITY>.0001457</ECCENTRICITY><INCLINATION>87.8972</INCLINATION><RA_OF_ASC_NODE>111.5152</RA_OF_ASC_NODE><ARG_OF_PERICENTER>105.0136</ARG_OF_PERICENTER><MEAN_ANOMALY>255.1155</MEAN_ANOMALY></meanElements><tleParameters><EPHEMERIS_TYPE>0</EPHEMERIS_TYPE><CLASSIFICATION_TYPE>U</CLASSIFICATION_TYPE><NORAD_CAT_ID>48228</NORAD_CAT_ID><ELEMENT_SET_NO>999</ELEMENT_SET_NO><REV_AT_EPOCH>12844</REV_AT_EPOCH><BSTAR>-.24386E-3</BSTAR><MEAN_MOTION_DOT>-.78E-6</MEAN_MOTION_DOT><MEAN_MOTION_DDOT>0</MEAN_MOTION_DDOT></tleParameters></data></segment></body></omm>
<omm id="CCSDS_OMM_VERS" version="2.0">
<header><CREATION_DATE/><ORIGINATOR/></header><body><segment><metadata><OBJECT_NAME>ONEWEB-0186</OBJECT_NAME><OBJECT_ID>2021-031V</OBJECT_ID><CENTER_NAME>EARTH</CENTER_NAME><REF_FRAME>TEME</REF_FRAME><TIME_SYSTEM>UTC</TIME_SYSTEM><MEAN_ELEMENT_THEORY>SGP4</MEAN_ELEMENT_THEORY></metadata><data><meanElements><EPOCH>2023-12-16T20:32:36.571776</EPOCH><MEAN_MOTION>13.14503434</MEAN_MOTION><ECCENTRICITY>.0001716</ECCENTRICITY><INCLINATION>87.8978</INCLINATION><RA_OF_ASC_NODE>111.4759</RA_OF_ASC_NODE><ARG_OF_PERICENTER>108.4483</ARG_OF_PERICENTER><MEAN_ANOMALY>251.6833</MEAN_ANOMALY></meanElements><tleParameters><EPHEMERIS_TYPE>0</EPHEMERIS_TYPE><CLASSIFICATION_TYPE>U</CLASSIFICATION_TYPE><NORAD_CAT_ID>48229</NORAD_CAT_ID><ELEMENT_SET_NO>999</ELEMENT_SET_NO><REV_AT_EPOCH>12839</REV_AT_EPOCH><BSTAR>.26942E-3</BSTAR><MEAN_MOTION_DOT>.113E-5</MEAN_MOTION_DOT><MEAN_MOTION_DDOT>0</MEAN_MOTION_DDOT></tleParameters></data></segment></body></omm>
<omm id="CCSDS_OMM_VERS" version="2.0">
<header><CREATION_DATE/><ORIGINATOR/></header><body><segment><metadata><OBJECT_NAME>ONEWEB-0181</OBJECT_NAME><OBJECT_ID>2021-031W</OBJECT_ID><CENTER_NAME>EARTH</CENTER_NAME><REF_FRAME>TEME</REF_FRAME><TIME_SYSTEM>UTC</TIME_SYSTEM><MEAN_ELEMENT_THEORY>SGP4</MEAN_ELEMENT_THEORY></metadata><data><meanElements><EPOCH>2023-12-16T20:00:35.966304</EPOCH><MEAN_MOTION>13.14500988</MEAN_MOTION><ECCENTRICITY>.0001697</ECCENTRICITY><INCLINATION>87.8970</INCLINATION><RA_OF_ASC_NODE>111.5528</RA_OF_ASC_NODE><ARG_OF_PERICENTER>105.2518</ARG_OF_PERICENTER><MEAN_ANOMALY>254.8800</MEAN_ANOMALY></meanElements><tleParameters><EPHEMERIS_TYPE>0</EPHEMERIS_TYPE><CLASSIFICATION_TYPE>U</CLASSIFICATION_TYPE><NORAD_CAT_ID>48230</NORAD_CAT_ID><ELEMENT_SET_NO>999</ELEMENT_SET_NO><REV_AT_EPOCH>12824</REV_AT_EPOCH><BSTAR>-.57389E-3</BSTAR><MEAN_MOTION_DOT>-.2E-5</MEAN_MOTION_DOT><MEAN_MOTION_DDOT>0</MEAN_MOTION_DDOT></tleParameters></data></segment></body></omm>
<omm id="CCSDS_OMM_VERS" version="2.0">
<header><CREATION_DATE/><ORIGINATOR/></header><body><segment><metadata><OBJECT_NAME>ONEWEB-0188</OBJECT_NAME><OBJECT_ID>2021-031X</OBJECT_ID><CENTER_NAME>EARTH</CENTER_NAME><REF_FRAME>TEME</REF_FRAME><TIME_SYSTEM>UTC</TIME_SYSTEM><MEAN_ELEMENT_THEORY>SGP4</MEAN_ELEMENT_THEORY></metadata><data><meanElements><EPOCH>2023-12-16T20:55:25.288608</EPOCH><MEAN_MOTION>13.14507100</MEAN_MOTION><ECCENTRICITY>.0001453</ECCENTRICITY><INCLINATION>87.8970</INCLINATION><RA_OF_ASC_NODE>111.5427</RA_OF_ASC_NODE><ARG_OF_PERICENTER>124.0779</ARG_OF_PERICENTER><MEAN_ANOMALY>236.0489</MEAN_ANOMALY></meanElements><tleParameters><EPHEMERIS_TYPE>0</EPHEMERIS_TYPE><CLASSIFICATION_TYPE>U</CLASSIFICATION_TYPE><NORAD_CAT_ID>48231</NORAD_CAT_ID><ELEMENT_SET_NO>999</ELEMENT_SET_NO><REV_AT_EPOCH>12815</REV_AT_EPOCH><BSTAR>-.18796E-2</BSTAR><MEAN_MOTION_DOT>-.684E-5</MEAN_MOTION_DOT><MEAN_MOTION_DDOT>0</MEAN_MOTION_DDOT></tleParameters></data></segment></body></omm>
<omm id="CCSDS_OMM_VERS" version="2.0">
<header><CREATION_DATE/><ORIGINATOR/></header><body><segment><metadata><OBJECT_NAME>ONEWEB-0220</OBJECT_NAME><OBJECT_ID>2021-031Y</OBJECT_ID><CENTER_NAME>EARTH</CENTER_NAME><REF_FRAME>TEME</REF_FRAME><TIME_SYSTEM>UTC</TIME_SYSTEM><MEAN_ELEMENT_THEORY>SGP4</MEAN_ELEMENT_THEORY></metadata><data><meanElements><EPOCH>2023-12-16T21:52:30.429984</EPOCH><MEAN_MOTION>13.14502097</MEAN_MOTION><ECCENTRICITY>.0001916</ECCENTRICITY><INCLINATION>87.8973</INCLINATION><RA_OF_ASC_NODE>111.5074</RA_OF_ASC_NODE><ARG_OF_PERICENTER>93.1284</ARG_OF_PERICENTER><MEAN_ANOMALY>267.0065</MEAN_ANOMALY></meanElements><tleParameters><EPHEMERIS_TYPE>0</EPHEMERIS_TYPE><CLASSIFICATION_TYPE>U</CLASSIFICATION_TYPE><NORAD_CAT_ID>48232</NORAD_CAT_ID><ELEMENT_SET_NO>999</ELEMENT_SET_NO><REV_AT_EPOCH>12842</REV_AT_EPOCH><BSTAR>-.56662E-3</BSTAR><MEAN_MOTION_DOT>-.197E-5</MEAN_MOTION_DOT><MEAN_MOTION_DDOT>0</MEAN_MOTION_DDOT></tleParameters></data></segment></body></omm>
<omm id="CCSDS_OMM_VERS" version="2.0">
<header><CREATION_DATE/><ORIGINATOR/></header><body><segment><metadata><OBJECT_NAME>ONEWEB-0165</OBJECT_NAME><OBJECT_ID>2021-031Z</OBJECT_ID><CENTER_NAME>EARTH</CENTER_NAME><REF_FRAME>TEME</REF_FRAME><TIME_SYSTEM>UTC</TIME_SYSTEM><MEAN_ELEMENT_THEORY>SGP4</MEAN_ELEMENT_THEORY></metadata><data><meanElements><EPOCH>2023-12-16T20:44:00.326688</EPOCH><MEAN_MOTION>13.14503038</MEAN_MOTION><ECCENTRICITY>.0001796</ECCENTRICITY><INCLINATION>87.8968</INCLINATION><RA_OF_ASC_NODE>111.5245</RA_OF_ASC_NODE><ARG_OF_PERICENTER>104.5741</ARG_OF_PERICENTER><MEAN_ANOMALY>255.5588</MEAN_ANOMALY></meanElements><tleParameters><EPHEMERIS_TYPE>0</EPHEMERIS_TYPE><CLASSIFICATION_TYPE>U</CLASSIFICATION_TYPE><NORAD_CAT_ID>48233</NORAD_CAT_ID><ELEMENT_SET_NO>999</ELEMENT_SET_NO><REV_AT_EPOCH>12837</REV_AT_EPOCH><BSTAR>.59122E-3</BSTAR><MEAN_MOTION_DOT>.232E-5</MEAN_MOTION_DOT><MEAN_MOTION_DDOT>0</MEAN_MOTION_DDOT></tleParameters></data></segment></body></omm>
<omm id="CCSDS_OMM_VERS" version="2.0">
<header><CREATION_DATE/><ORIGINATOR/></header><body><segment><metadata><OBJECT_NAME>ONEWEB-0199</OBJECT_NAME><OBJECT_ID>2021-031AA</OBJECT_ID><CENTER_NAME>EARTH</CENTER_NAME><REF_FRAME>TEME</REF_FRAME><TIME_SYSTEM>UTC</TIME_SYSTEM><MEAN_ELEMENT_THEORY>SGP4</MEAN_ELEMENT_THEORY></metadata><data><meanElements><EPOCH>2023-12-16T20:21:09.048960</EPOCH><MEAN_MOTION>13.14505002</MEAN_MOTION><ECCENTRICITY>.0001757</ECCENTRICITY><INCLINATION>87.8966</INCLINATION><RA_OF_ASC_NODE>111.4989</RA_OF_ASC_NODE><ARG_OF_PERICENTER>106.1609</ARG_OF_PERICENTER><MEAN_ANOMALY>253.9714</MEAN_ANOMALY></meanElements><tleParameters><EPHEMERIS_TYPE>0</EPHEMERIS_TYPE><CLASSIFICATION_TYPE>U</CLASSIFICATION_TYPE><NORAD_CAT_ID>48234</NORAD_CAT_ID><ELEMENT_SET_NO>999</ELEMENT_SET_NO><REV_AT_EPOCH>12827</REV_AT_EPOCH><BSTAR>-.97941E-3</BSTAR><MEAN_MOTION_DOT>-.35E-5</MEAN_MOTION_DOT><MEAN_MOTION_DDOT>0</MEAN_MOTION_DDOT></tleParameters></data></segment></body></omm>

</ndm>
